[{"CCSDS_OMM_VERS":"2.0","COMMENT":"GENERATED VIA SPACE-TRACK.ORG API","CREATION_DATE":"2022-12-08T18:21:51","ORIGINATOR":"18 SPCS","OBJECT_NAME":"OPTUS C1","OBJECT_ID":"2003-028B","CENTER_NAME":"EARTH","REF_FRAME":"TEME","TIME_SYSTEM":"UTC","MEAN_ELEMENT_THEORY":"SGP4","EPOCH":"2022-12-08T12:21:22.550976","MEAN_MOTION":"1.00272181","ECCENTRICITY":"0.00060540","INCLINATION":"3.6360","RA_OF_ASC_NODE":"84.5212","ARG_OF_PERICENTER":"171.9250","MEAN_ANOMALY":"161.8970","EPHEMERIS_TYPE":"0","CLASSIFICATION_TYPE":"U","NORAD_CAT_ID":"27831","ELEMENT_SET_NO":"999","REV_AT_EPOCH":"4015","BSTAR":"0.00000000000000","MEAN_MOTION_DOT":"-0.00000137","MEAN_MOTION_DDOT":"0.0000000000000","SEMIMAJOR_AXIS":"42164.621","PERIOD":"1436.091","APOAPSIS":"35812.012","PERIAPSIS":"35760.959","OBJECT_TYPE":"PAYLOAD","RCS_SIZE":"LARGE","COUNTRY_CODE":"AUS","LAUNCH_DATE":"2003-06-11","SITE":"FRGUI","DECAY_DATE":null,"FILE":"3684614","GP_ID":"219759396","TLE_LINE0":"0 OPTUS C1","TLE_LINE1":"1 27831U 03028B   22342.51484434 -.00000137  00000-0  00000-0 0  9992","TLE_LINE2":"2 27831   3.6360  84.5212 0006054 171.9250 161.8970  1.00272181 40157"},{"CCSDS_OMM_VERS":"2.0","COMMENT":"GENERATED VIA SPACE-TRACK.ORG API","CREATION_DATE":"2022-12-08T18:21:51","ORIGINATOR":"18 SPCS","OBJECT_NAME":"BSAT-2C","OBJECT_ID":"2003-028A","CENTER_NAME":"EARTH","REF_FRAME":"TEME","TIME_SYSTEM":"UTC","MEAN_ELEMENT_THEORY":"SGP4","EPOCH":"2022-12-08T09:22:42.002688","MEAN_MOTION":"0.99198918","ECCENTRICITY":"0.00054090","INCLINATION":"7.2747","RA_OF_ASC_NODE":"63.1008","ARG_OF_PERICENTER":"251.8614","MEAN_ANOMALY":"134.2327","EPHEMERIS_TYPE":"0","CLASSIFICATION_TYPE":"U","NORAD_CAT_ID":"27830","ELEMENT_SET_NO":"999","REV_AT_EPOCH":"3389","BSTAR":"0.00000000000000","MEAN_MOTION_DOT":"0.00000089","MEAN_MOTION_DDOT":"0.0000000000000","SEMIMAJOR_AXIS":"42468.203","PERIOD":"1451.629","APOAPSIS":"36113.039","PERIAPSIS":"36067.097","OBJECT_TYPE":"PAYLOAD","RCS_SIZE":"LARGE","COUNTRY_CODE":"JPN","LAUNCH_DATE":"2003-06-11","SITE":"FRGUI","DECAY_DATE":null,"FILE":"3684614","GP_ID":"219760639","TLE_LINE0":"0 BSAT-2C","TLE_LINE1":"1 27830U 03028A   22342.39076392  .00000089  00000-0  00000-0 0  9992","TLE_LINE2":"2 27830   7.2747  63.1008 0005409 251.8614 134.2327  0.99198918 33891"},{"CCSDS_OMM_VERS":"2.0","COMMENT":"GENERATED VIA SPACE-TRACK.ORG API","CREATION_DATE":"2022-12-08T18:21:51","ORIGINATOR":"18 SPCS","OBJECT_NAME":"THURAYA 2","OBJECT_ID":"2003-026A","CENTER_NAME":"EARTH","REF_FRAME":"TEME","TIME_SYSTEM":"UTC","MEAN_ELEMENT_THEORY":"SGP4","EPOCH":"2022-12-08T14:09:52.970688","MEAN_MOTION":"1.00270976","ECCENTRICITY":"0.00025700","INCLINATION":"6.9520","RA_OF_ASC_NODE":"34.5374","ARG_OF_PERICENTER":"197.9844","MEAN_ANOMALY":"101.2729","EPHEMERIS_TYPE":"0","CLASSIFICATION_TYPE":"U","NORAD_CAT_ID":"27825","ELEMENT_SET_NO":"999","REV_AT_EPOCH":"7144","BSTAR":"0.00000000000000","MEAN_MOTION_DOT":"0.00000137","MEAN_MOTION_DDOT":"0.0000000000000","SEMIMAJOR_AXIS":"42164.959","PERIOD":"1436.108","APOAPSIS":"35797.660","PERIAPSIS":"35775.987","OBJECT_TYPE":"PAYLOAD","RCS_SIZE":"LARGE","COUNTRY_CODE":"UAE","LAUNCH_DATE":"2003-06-10","SITE":"SEAL","DECAY_DATE":null,"FILE":"3684614","GP_ID":"219760145","TLE_LINE0":"0 THURAYA 2","TLE_LINE1":"1 27825U 03026A   22342.59019642  .00000137  00000-0  00000-0 0  9995","TLE_LINE2":"2 27825   6.9520  34.5374 0002570 197.9844 101.2729  1.00270976 71440"},{"CCSDS_OMM_VERS":"2.0","COMMENT":"GENERATED VIA SPACE-TRACK.ORG API","CREATION_DATE":"2022-12-08T18:21:51","ORIGINATOR":"18 SPCS","OBJECT_NAME":"AMC-9 (GE-12)","OBJECT_ID":"2003-024A","CENTER_NAME":"EARTH","REF_FRAME":"TEME","TIME_SYSTEM":"UTC","MEAN_ELEMENT_THEORY":"SGP4","EPOCH":"2022-12-08T12:30:42.638112","MEAN_MOTION":"0.99034482","ECCENTRICITY":"0.00135730","INCLINATION":"4.6794","RA_OF_ASC_NODE":"79.4163","ARG_OF_PERICENTER":"307.7784","MEAN_ANOMALY":"60.3295","EPHEMERIS_TYPE":"0","CLASSIFICATION_TYPE":"U","NORAD_CAT_ID":"27820","ELEMENT_SET_NO":"999","REV_AT_EPOCH":"7125","BSTAR":"0.00000000000000","MEAN_MOTION_DOT":"-0.00000132","MEAN_MOTION_DDOT":"0.0000000000000","SEMIMAJOR_AXIS":"42515.199","PERIOD":"1454.039","APOAPSIS":"36194.770","PERIAPSIS":"36079.358","OBJECT_TYPE":"PAYLOAD","RCS_SIZE":"LARGE","COUNTRY_CODE":"SES","LAUNCH_DATE":"2003-06-06","SITE":"TTMTR","DECAY_DATE":null,"FILE":"3684614","GP_ID":"219761139","TLE_LINE0":"0 AMC-9 (GE-12)","TLE_LINE1":"1 27820U 03024A   22342.52132683 -.00000132  00000-0  00000-0 0  9998","TLE_LINE2":"2 27820   4.6794  79.4163 0013573 307.7784  60.3295  0.99034482 71255"},{"CCSDS_OMM_VERS":"2.0","COMMENT":"GENERATED VIA SPACE-TRACK.ORG API","CREATION_DATE":"2022-12-08T18:21:51","ORIGINATOR":"18 SPCS","OBJECT_NAME":"BD 1 03","OBJECT_ID":"2003-021A","CENTER_NAME":"EARTH","REF_FRAME":"TEME","TIME_SYSTEM":"UTC","MEAN_ELEMENT_THEORY":"SGP4","EPOCH":"2022-12-07T20:20:06.942048","MEAN_MOTION":"0.99769805","ECCENTRICITY":"0.00098100","INCLINATION":"8.8744","RA_OF_ASC_NODE":"51.1030","ARG_OF_PERICENTER":"278.0799","MEAN_ANOMALY":"98.2115","EPHEMERIS_TYPE":"0","CLASSIFICATION_TYPE":"U","NORAD_CAT_ID":"27813","ELEMENT_SET_NO":"999","REV_AT_EPOCH":"7146","BSTAR":"0.00000000000000","MEAN_MOTION_DOT":"0.00000135","MEAN_MOTION_DDOT":"0.0000000000000","SEMIMAJOR_AXIS":"42306.045","PERIOD":"1443.322","APOAPSIS":"35969.412","PERIAPSIS":"35886.408","OBJECT_TYPE":"PAYLOAD","RCS_SIZE":"LARGE","COUNTRY_CODE":"PRC","LAUNCH_DATE":"2003-05-24","SITE":"XSC","DECAY_DATE":null,"FILE":"3684614","GP_ID":"219759395","TLE_LINE0":"0 BD 1 03","TLE_LINE1":"1 27813U 03021A   22341.84730257  .00000135  00000-0  00000-0 0  9994","TLE_LINE2":"2 27813   8.8744  51.1030 0009810 278.0799  98.2115  0.99769805 71461"},{"CCSDS_OMM_VERS":"2.0","COMMENT":"GENERATED VIA SPACE-TRACK.ORG API","CREATION_DATE":"2022-12-08T18:21:51","ORIGINATOR":"18 SPCS","OBJECT_NAME":"HELLAS-SAT 2","OBJECT_ID":"2003-020A","CENTER_NAME":"EARTH","REF_FRAME":"TEME","TIME_SYSTEM":"UTC","MEAN_ELEMENT_THEORY":"SGP4","EPOCH":"2022-12-08T13:04:52.293216","MEAN_MOTION":"1.00272300","ECCENTRICITY":"0.00079700","INCLINATION":"4.1196","RA_OF_ASC_NODE":"82.7103","ARG_OF_PERICENTER":"175.5530","MEAN_ANOMALY":"5.2491","EPHEMERIS_TYPE":"0","CLASSIFICATION_TYPE":"U","NORAD_CAT_ID":"27811","ELEMENT_SET_NO":"999","REV_AT_EPOCH":"2994","BSTAR":"0.00000000000000","MEAN_MOTION_DOT":"-0.00000069","MEAN_MOTION_DDOT":"0.0000000000000","SEMIMAJOR_AXIS":"42164.588","PERIOD":"1436.090","APOAPSIS":"35820.058","PERIAPSIS":"35752.847","OBJECT_TYPE":"PAYLOAD","RCS_SIZE":"LARGE","COUNTRY_CODE":"GREC","LAUNCH_DATE":"2003-05-13","SITE":"AFETR","DECAY_DATE":null,"FILE":"3684614","GP_ID":"219760638","TLE_LINE0":"0 HELLAS-SAT 2","TLE_LINE1":"1 27811U 03020A   22342.54504969 -.00000069  00000-0  00000-0 0  9995","TLE_LINE2":"2 27811   4.1196  82.7103 0007970 175.5530   5.2491  1.00272300 29942"},{"CCSDS_OMM_VERS":"2.0","COMMENT":"GENERATED VIA SPACE-TRACK.ORG API","CREATION_DATE":"2022-12-08T07:56:14","ORIGINATOR":"18 SPCS","OBJECT_NAME":"GSAT 2","OBJECT_ID":"2003-018A","CENTER_NAME":"EARTH","REF_FRAME":"TEME","TIME_SYSTEM":"UTC","MEAN_ELEMENT_THEORY":"SGP4","EPOCH":"2022-12-07T19:48:21.466080","MEAN_MOTION":"0.99842295","ECCENTRICITY":"0.00088260","INCLINATION":"8.6593","RA_OF_ASC_NODE":"51.4415","ARG_OF_PERICENTER":"315.9751","MEAN_ANOMALY":"99.6679","EPHEMERIS_TYPE":"0","CLASSIFICATION_TYPE":"U","NORAD_CAT_ID":"27807","ELEMENT_SET_NO":"999","REV_AT_EPOCH":"7159","BSTAR":"0.00000000000000","MEAN_MOTION_DOT":"-0.00000167","MEAN_MOTION_DDOT":"0.0000000000000","SEMIMAJOR_AXIS":"42285.565","PERIOD":"1442.275","APOAPSIS":"35944.751","PERIAPSIS":"35870.109","OBJECT_TYPE":"PAYLOAD","RCS_SIZE":"MEDIUM","COUNTRY_CODE":"IND","LAUNCH_DATE":"2003-05-08","SITE":"SRI","DECAY_DATE":null,"FILE":"3684379","GP_ID":"219748690","TLE_LINE0":"0 GSAT 2","TLE_LINE1":"1 27807U 03018A   22341.82524845 -.00000167  00000-0  00000+0 0  9990","TLE_LINE2":"2 27807   8.6593  51.4415 0008826 315.9751  99.6679  0.99842295 71598"},{"CCSDS_OMM_VERS":"2.0","COMMENT":"GENERATED VIA SPACE-TRACK.ORG API","CREATION_DATE":"2022-12-08T18:21:51","ORIGINATOR":"18 SPCS","OBJECT_NAME":"SL-12 R\/B(2)","OBJECT_ID":"2003-015F","CENTER_NAME":"EARTH","REF_FRAME":"TEME","TIME_SYSTEM":"UTC","MEAN_ELEMENT_THEORY":"SGP4","EPOCH":"2022-12-08T12:10:19.818048","MEAN_MOTION":"1.00336184","ECCENTRICITY":"0.00123470","INCLINATION":"11.3002","RA_OF_ASC_NODE":"28.9370","ARG_OF_PERICENTER":"20.8086","MEAN_ANOMALY":"327.5580","EPHEMERIS_TYPE":"0","CLASSIFICATION_TYPE":"U","NORAD_CAT_ID":"27780","ELEMENT_SET_NO":"999","REV_AT_EPOCH":"7159","BSTAR":"0.00000000000000","MEAN_MOTION_DOT":"-0.00000368","MEAN_MOTION_DDOT":"0.0000000000000","SEMIMAJOR_AXIS":"42146.688","PERIOD":"1435.175","APOAPSIS":"35820.592","PERIAPSIS":"35716.515","OBJECT_TYPE":"ROCKET BODY","RCS_SIZE":"LARGE","COUNTRY_CODE":"CIS","LAUNCH_DATE":"2003-04-24","SITE":"TTMTR","DECAY_DATE":null,"FILE":"3684614","GP_ID":"219760141","TLE_LINE0":"0 SL-12 R\/B(2)","TLE_LINE1":"1 27780U 03015F   22342.50717382 -.00000368  00000-0  00000-0 0  9997","TLE_LINE2":"2 27780  11.3002  28.9370 0012347  20.8086 327.5580  1.00336184 71591"}]